{"type": "FeatureCollection", "features": [ {"type": "Feature", "properties": {"norad_id": 33867, "name": "IRIDIUM 33 DEB", "group": "iridium-33-debris", "lat": 79.57650237991258, "lon": 143.86419875667255, "alt_km": 219.2838413522877, "timestamp": "2025-12-24T03:53:30.031808+00:00", "meta": {"OBJECT_NAME": "IRIDIUM 33 DEB", "OBJECT_ID": "1997-051AL", "EPOCH": "2025-12-23T20:01:30.592704", "MEAN_MOTION": 16.07905619, "ECCENTRICITY": 0.0012382, "INCLINATION": 86.3716, "RA_OF_ASC_NODE": 344.225, "ARG_OF_PERICENTER": 111.097, "MEAN_ANOMALY": 249.1645, "EPHEMERIS_TYPE": 0, "CLASSIFICATION_TYPE": "U", "NORAD_CAT_ID": 33867, "ELEMENT_SET_NO": 999, "REV_AT_EPOCH": 89686, "BSTAR": 0.010042, "MEAN_MOTION_DOT": 0.05649041, "MEAN_MOTION_DDOT": 0.086118}, "tle": {"line1": "1 33867U 97051AL  25357.83438186  .05649041  86118-1  10042-1 0  9994", "line2": "2 33867  86.3716 344.2250 0012382 111.0970 249.1645 16.07905619896867"}}, "geometry": {"type": "Point", "coordinates": [143.86419875667255, 79.57650237991258]}}, {"type": "Feature", "properties": {"norad_id": 33870, "name": "IRIDIUM 33 DEB", "group": "iridium-33-debris", "lat": -16.316679739949, "lon": 52.30067840221203, "alt_km": 758.8152673979139, "timestamp": "2025-12-24T03:53:30.031819+00:00", "meta": {"OBJECT_NAME": "IRIDIUM 33 DEB", "OBJECT_ID": "1997-051AP", "EPOCH": "2025-12-23T04:59:30.895872", "MEAN_MOTION": 14.45900909, "ECCENTRICITY": 0.00225031, "INCLINATION": 86.3735, "RA_OF_ASC_NODE": 53.7735, "ARG_OF_PERICENTER": 144.8377, "MEAN_ANOMALY": 275.5744, "EPHEMERIS_TYPE": 0, "CLASSIFICATION_TYPE": "U", "NORAD_CAT_ID": 33870, "ELEMENT_SET_NO": 999, "REV_AT_EPOCH": 88288, "BSTAR": 0.00068782741, "MEAN_MOTION_DOT": 2.471e-05, "MEAN_MOTION_DDOT": 0}, "tle": {"line1": "1 33870U 97051AP  25357.20799648  .00002471  00000+0  68783-3 0  9998", "line2": "2 33870  86.3735  53.7735 0022503 144.8377 275.5744 14.45900909882880"}}, "geometry": {"type": "Point", "coordinates": [52.30067840221203, -16.316679739949]}}, {"type": "Feature", "properties": {"norad_id": 33881, "name": "IRIDIUM 33 DEB", "group": "iridium-33-debris", "lat": -64.2459498609432, "lon": 94.25226052029444, "alt_km": 751.0046592281406, "timestamp": "2025-12-24T03:53:30.031830+00:00", "meta": {"OBJECT_NAME": "IRIDIUM 33 DEB", "OBJECT_ID": "1997-051BA", "EPOCH": "2025-12-23T08:42:51.465888", "MEAN_MOTION": 14.56755437, "ECCENTRICITY": 0.0061134, "INCLINATION": 86.3867, "RA_OF_ASC_NODE": 102.1259, "ARG_OF_PERICENTER": 140.3632, "MEAN_ANOMALY": 287.1134, "EPHEMERIS_TYPE": 0, "CLASSIFICATION_TYPE": "U", "NORAD_CAT_ID": 33881, "ELEMENT_SET_NO": 999, "REV_AT_EPOCH": 87655, "BSTAR": 0.0021908, "MEAN_MOTION_DOT": 0.00010075, "MEAN_MOTION_DDOT": 0}, "tle": {"line1": "1 33881U 97051BA  25357.36309567  .00010075  00000+0  21908-2 0  9990", "line2": "2 33881  86.3867 102.1259 0061134 140.3632 287.1134 14.56755437876551"}}, "geometry": {"type": "Point", "coordinates": [94.25226052029444, -64.2459498609432]}}, {"type": "Feature", "properties": {"norad_id": 33884, "name": "IRIDIUM 33 DEB", "group": "iridium-33-debris", "lat": 18.607627702341134, "lon": 5.88585555650681, "alt_km": 638.2510521627983, "timestamp": "2025-12-24T03:53:30.031841+00:00", "meta": {"OBJECT_NAME": "IRIDIUM 33 DEB", "OBJECT_ID": "1997-051BD", "EPOCH": "2025-12-23T18:51:51.523200", "MEAN_MOTION": 14.77639332, "ECCENTRICITY": 0.0008924, "INCLINATION": 86.3696, "RA_OF_ASC_NODE": 4.8308, "ARG_OF_PERICENTER": 280.0291, "MEAN_ANOMALY": 259.06, "EPHEMERIS_TYPE": 0, "CLASSIFICATION_TYPE": "U", "NORAD_CAT_ID": 33884, "ELEMENT_SET_NO": 999, "REV_AT_EPOCH": 89010, "BSTAR": 0.0015649, "MEAN_MOTION_DOT": 0.00011231, "MEAN_MOTION_DDOT": 0}, "tle": {"line1": "1 33884U 97051BD  25357.78601300  .00011231  00000+0  15649-2 0  9999", "line2": "2 33884  86.3696   4.8308 0008924 280.0291 259.0600 14.77639332890109"}}, "geometry": {"type": "Point", "coordinates": [5.88585555650681, 18.607627702341134]}}, {"type": "Feature", "properties": {"norad_id": 33886, "name": "IRIDIUM 33 DEB", "group": "iridium-33-debris", "lat": 41.009512822258294, "lon": 65.57460785074768, "alt_km": 777.2970733631691, "timestamp": "2025-12-24T03:53:30.031852+00:00", "meta": {"OBJECT_NAME": "IRIDIUM 33 DEB", "OBJECT_ID": "1997-051BF", "EPOCH": "2025-12-23T15:00:29.018304", "MEAN_MOTION": 14.36063924, "ECCENTRICITY": 0.0013313, "INCLINATION": 86.3821, "RA_OF_ASC_NODE": 62.6467, "ARG_OF_PERICENTER": 202.9626, "MEAN_ANOMALY": 304.7848, "EPHEMERIS_TYPE": 0, "CLASSIFICATION_TYPE": "U", "NORAD_CAT_ID": 33886, "ELEMENT_SET_NO": 999, "REV_AT_EPOCH": 88208, "BSTAR": 0.00017412, "MEAN_MOTION_DOT": 5.26e-06, "MEAN_MOTION_DDOT": 0}, "tle": {"line1": "1 33886U 97051BF  25357.62533586  .00000526  00000+0  17412-3 0  9990", "line2": "2 33886  86.3821  62.6467 0013313 202.9626 304.7848 14.36063924882085"}}, "geometry": {"type": "Point", "coordinates": [65.57460785074768, 41.009512822258294]}}, {"type": "Feature", "properties": {"norad_id": 33887, "name": "IRIDIUM 33 DEB", "group": "iridium-33-debris", "lat": 25.282559052676167, "lon": 0.21886385971404057, "alt_km": 770.68165856837, "timestamp": "2025-12-24T03:53:30.031862+00:00", "meta": {"OBJECT_NAME": "IRIDIUM 33 DEB", "OBJECT_ID": "1997-051BG", "EPOCH": "2025-12-23T18:19:56.151840", "MEAN_MOTION": 14.37230335, "ECCENTRICITY": 0.0005647, "INCLINATION": 86.3042, "RA_OF_ASC_NODE": 358.641, "ARG_OF_PERICENTER": 183.9623, "MEAN_ANOMALY": 301.9484, "EPHEMERIS_TYPE": 0, "CLASSIFICATION_TYPE": "U", "NORAD_CAT_ID": 33887, "ELEMENT_SET_NO": 999, "REV_AT_EPOCH": 88323, "BSTAR": 0.00013342, "MEAN_MOTION_DOT": 4.17e-06, "MEAN_MOTION_DDOT": 0}, "tle": {"line1": "1 33887U 97051BG  25357.76384435  .00000417  00000+0  13342-3 0  9990", "line2": "2 33887  86.3042 358.6410 0005647 183.9623 301.9484 14.37230335883239"}}, "geometry": {"type": "Point", "coordinates": [0.21886385971404057, 25.282559052676167]}}, {"type": "Feature", "properties": {"norad_id": 33953, "name": "IRIDIUM 33 DEB", "group": "iridium-33-debris", "lat": -84.74220355934624, "lon": -87.76564878523035, "alt_km": 727.4012568423332, "timestamp": "2025-12-24T03:53:30.031873+00:00", "meta": {"OBJECT_NAME": "IRIDIUM 33 DEB", "OBJECT_ID": "1997-051BN", "EPOCH": "2025-12-22T04:44:25.619136", "MEAN_MOTION": 14.55406947, "ECCENTRICITY": 0.00178347, "INCLINATION": 86.3836, "RA_OF_ASC_NODE": 49.6744, "ARG_OF_PERICENTER": 73.9809, "MEAN_ANOMALY": 345.1929, "EPHEMERIS_TYPE": 0, "CLASSIFICATION_TYPE": "U", "NORAD_CAT_ID": 33953, "ELEMENT_SET_NO": 999, "REV_AT_EPOCH": 88441, "BSTAR": 0.0010994661, "MEAN_MOTION_DOT": 4.805e-05, "MEAN_MOTION_DDOT": 0}, "tle": {"line1": "1 33953U 97051BN  25356.19751874  .00004805  00000+0  10995-2 0  9990", "line2": "2 33953  86.3836  49.6744 0017834  73.9809 345.1929 14.55406947884415"}}, "geometry": {"type": "Point", "coordinates": [-87.76564878523035, -84.74220355934624]}}, {"type": "Feature", "properties": {"norad_id": 33960, "name": "IRIDIUM 33 DEB", "group": "iridium-33-debris", "lat": -46.070316127461545, "lon": 108.02683825043326, "alt_km": 623.1818459572869, "timestamp": "2025-12-24T03:53:30.031884+00:00", "meta": {"OBJECT_NAME": "IRIDIUM 33 DEB", "OBJECT_ID": "1997-051BV", "EPOCH": "2025-12-22T20:25:56.627904", "MEAN_MOTION": 14.85668232, "ECCENTRICITY": 0.00072159, "INCLINATION": 86.2544, "RA_OF_ASC_NODE": 284.7457, "ARG_OF_PERICENTER": 44.6643, "MEAN_ANOMALY": 15.2245, "EPHEMERIS_TYPE": 0, "CLASSIFICATION_TYPE": "U", "NORAD_CAT_ID": 33960, "ELEMENT_SET_NO": 999, "REV_AT_EPOCH": 89017, "BSTAR": 0.0029026593, "MEAN_MOTION_DOT": 0.00025254, "MEAN_MOTION_DDOT": 0}, "tle": {"line1": "1 33960U 97051BV  25356.85134986  .00025254  00000+0  29027-2 0  9997", "line2": "2 33960  86.2544 284.7457 0007215  44.6643  15.2245 14.85668232890170"}}, "geometry": {"type": "Point", "coordinates": [108.02683825043326, -46.070316127461545]}}, {"type": "Feature", "properties": {"norad_id": 33966, "name": "IRIDIUM 33 DEB", "group": "iridium-33-debris", "lat": 24.121475619492603, "lon": -140.49463600968892, "alt_km": 720.2582527929117, "timestamp": "2025-12-24T03:53:30.031894+00:00", "meta": {"OBJECT_NAME": "IRIDIUM 33 DEB", "OBJECT_ID": "1997-051CB", "EPOCH": "2025-12-23T04:16:14.623392", "MEAN_MOTION": 14.49632542, "ECCENTRICITY": 0.00085683, "INCLINATION": 86.391, "RA_OF_ASC_NODE": 41.5472, "ARG_OF_PERICENTER": 155.6053, "MEAN_ANOMALY": 267.1436, "EPHEMERIS_TYPE": 0, "CLASSIFICATION_TYPE": "U", "NORAD_CAT_ID": 33966, "ELEMENT_SET_NO": 999, "REV_AT_EPOCH": 88593, "BSTAR": 0.0004536532, "MEAN_MOTION_DOT": 1.763e-05, "MEAN_MOTION_DDOT": 0}, "tle": {"line1": "1 33966U 97051CB  25357.17794703  .00001763  00000+0  45365-3 0  9991", "line2": "2 33966  86.3910  41.5472 0008568 155.6053 267.1436 14.49632542885933"}}, "geometry": {"type": "Point", "coordinates": [-140.49463600968892, 24.121475619492603]}}, {"type": "Feature", "properties": {"norad_id": 34071, "name": "IRIDIUM 33 DEB", "group": "iridium-33-debris", "lat": -36.99498101008641, "lon": -164.37675949937898, "alt_km": 739.0905591141345, "timestamp": "2025-12-24T03:53:30.031905+00:00", "meta": {"OBJECT_NAME": "IRIDIUM 33 DEB", "OBJECT_ID": "1997-051CE", "EPOCH": "2025-12-23T18:36:37.903680", "MEAN_MOTION": 14.49510873, "ECCENTRICITY": 0.0009898, "INCLINATION": 86.3448, "RA_OF_ASC_NODE": 13.0308, "ARG_OF_PERICENTER": 78.1574, "MEAN_ANOMALY": 282.074, "EPHEMERIS_TYPE": 0, "CLASSIFICATION_TYPE": "U", "NORAD_CAT_ID": 34071, "ELEMENT_SET_NO": 999, "REV_AT_EPOCH": 88494, "BSTAR": 0.0005889, "MEAN_MOTION_DOT": 2.277e-05, "MEAN_MOTION_DDOT": 0}, "tle": {"line1": "1 34071U 97051CE  25357.77543870  .00002277  00000+0  58890-3 0  9990", "line2": "2 34071  86.3448  13.0308 0009898  78.1574 282.0740 14.49510873884949"}}, "geometry": {"type": "Point", "coordinates": [-164.37675949937898, -36.99498101008641]}}]}